{"type": "FeatureCollection", "features": [ {"type": "Feature", "properties": {"norad_id": 66595, "name": "STARLINK-35711", "group": "last-30-days", "lat": 15.304905098353395, "lon": -65.41203660546978, "alt_km": 441.5752860658049, "timestamp": "2025-12-23T05:02:10.748009+00:00", "meta": {"OBJECT_NAME": "STARLINK-35711", "OBJECT_ID": "2025-270H", "EPOCH": "2025-12-22T19:01:20.207136", "MEAN_MOTION": 15.40698499, "ECCENTRICITY": 0.00015215, "INCLINATION": 42.9996, "RA_OF_ASC_NODE": 134.0714, "ARG_OF_PERICENTER": 252.5056, "MEAN_ANOMALY": 107.5634, "EPHEMERIS_TYPE": 0, "CLASSIFICATION_TYPE": "U", "NORAD_CAT_ID": 66595, "ELEMENT_SET_NO": 999, "REV_AT_EPOCH": 601, "BSTAR": 0.0018955013, "MEAN_MOTION_DOT": 0.00079704, "MEAN_MOTION_DDOT": 0}, "tle": {"line1": "1 66595U 25270H   25356.79259499  .00079704  00000+0  18955-2 0  9998", "line2": "2 66595  42.9996 134.0714 0001521 252.5056 107.5634 15.40698499  6014"}}, "geometry": {"type": "Point", "coordinates": [-65.41203660546978, 15.304905098353395]}}, {"type": "Feature", "properties": {"norad_id": 66596, "name": "STARLINK-35811", "group": "last-30-days", "lat": -25.302509188293353, "lon": -17.12045363976326, "alt_km": 446.9130524975908, "timestamp": "2025-12-23T05:02:10.748020+00:00", "meta": {"OBJECT_NAME": "STARLINK-35811", "OBJECT_ID": "2025-270J", "EPOCH": "2025-12-22T18:45:23.391072", "MEAN_MOTION": 15.40753898, "ECCENTRICITY": 0.00011739, "INCLINATION": 42.9952, "RA_OF_ASC_NODE": 134.8575, "ARG_OF_PERICENTER": 40.5321, "MEAN_ANOMALY": 319.5623, "EPHEMERIS_TYPE": 0, "CLASSIFICATION_TYPE": "U", "NORAD_CAT_ID": 66596, "ELEMENT_SET_NO": 999, "REV_AT_EPOCH": 600, "BSTAR": 0.0013359196, "MEAN_MOTION_DOT": 0.00056012, "MEAN_MOTION_DDOT": 0}, "tle": {"line1": "1 66596U 25270J   25356.78152073  .00056012  00000+0  13359-2 0  9998", "line2": "2 66596  42.9952 134.8575 0001173  40.5321 319.5623 15.40753898  6000"}}, "geometry": {"type": "Point", "coordinates": [-17.12045363976326, -25.302509188293353]}}, {"type": "Feature", "properties": {"norad_id": 66597, "name": "STARLINK-35820", "group": "last-30-days", "lat": -42.96211524328956, "lon": 40.2204450216267, "alt_km": 446.35639881096085, "timestamp": "2025-12-23T05:02:10.748031+00:00", "meta": {"OBJECT_NAME": "STARLINK-35820", "OBJECT_ID": "2025-270K", "EPOCH": "2025-12-22T10:45:41.492160", "MEAN_MOTION": 15.40705412, "ECCENTRICITY": 0.0001523, "INCLINATION": 43.0006, "RA_OF_ASC_NODE": 136.6549, "ARG_OF_PERICENTER": 268.2187, "MEAN_ANOMALY": 91.8496, "EPHEMERIS_TYPE": 0, "CLASSIFICATION_TYPE": "U", "NORAD_CAT_ID": 66597, "ELEMENT_SET_NO": 999, "REV_AT_EPOCH": 595, "BSTAR": 4.9108212e-05, "MEAN_MOTION_DOT": 1.749e-05, "MEAN_MOTION_DDOT": 0}, "tle": {"line1": "1 66597U 25270K   25356.44839690  .00001749  00000+0  49108-4 0  9999", "line2": "2 66597  43.0006 136.6549 0001523 268.2187  91.8496 15.40705412  5952"}}, "geometry": {"type": "Point", "coordinates": [40.2204450216267, -42.96211524328956]}}, {"type": "Feature", "properties": {"norad_id": 66598, "name": "STARLINK-35981", "group": "last-30-days", "lat": -2.9609874226986235, "lon": 128.87055783580735, "alt_km": 443.795248939472, "timestamp": "2025-12-23T05:02:10.748041+00:00", "meta": {"OBJECT_NAME": "STARLINK-35981", "OBJECT_ID": "2025-270L", "EPOCH": "2025-12-22T16:36:32.317344", "MEAN_MOTION": 15.40777654, "ECCENTRICITY": 0.00016022, "INCLINATION": 42.9975, "RA_OF_ASC_NODE": 135.0381, "ARG_OF_PERICENTER": 258.5949, "MEAN_ANOMALY": 101.4727, "EPHEMERIS_TYPE": 0, "CLASSIFICATION_TYPE": "U", "NORAD_CAT_ID": 66598, "ELEMENT_SET_NO": 999, "REV_AT_EPOCH": 573, "BSTAR": 0.0018486578, "MEAN_MOTION_DOT": 0.00077913, "MEAN_MOTION_DDOT": 0}, "tle": {"line1": "1 66598U 25270L   25356.69204071  .00077913  00000+0  18487-2 0  9996", "line2": "2 66598  42.9975 135.0381 0001602 258.5949 101.4727 15.40777654  5737"}}, "geometry": {"type": "Point", "coordinates": [128.87055783580735, -2.9609874226986235]}}, {"type": "Feature", "properties": {"norad_id": 66599, "name": "STARLINK-35930", "group": "last-30-days", "lat": 30.180924542656783, "lon": -86.89215296252988, "alt_km": 439.6270401197562, "timestamp": "2025-12-23T05:02:10.748051+00:00", "meta": {"OBJECT_NAME": "STARLINK-35930", "OBJECT_ID": "2025-270M", "EPOCH": "2025-12-22T20:41:06.960768", "MEAN_MOTION": 15.4075915, "ECCENTRICITY": 9.365e-05, "INCLINATION": 42.9991, "RA_OF_ASC_NODE": 133.7312, "ARG_OF_PERICENTER": 309.4273, "MEAN_ANOMALY": 50.6501, "EPHEMERIS_TYPE": 0, "CLASSIFICATION_TYPE": "U", "NORAD_CAT_ID": 66599, "ELEMENT_SET_NO": 999, "REV_AT_EPOCH": 591, "BSTAR": 0.00091044513, "MEAN_MOTION_DOT": 0.00037992, "MEAN_MOTION_DDOT": 0}, "tle": {"line1": "1 66599U 25270M   25356.86188612  .00037992  00000+0  91045-3 0  9993", "line2": "2 66599  42.9991 133.7312 0000936 309.4273  50.6501 15.40759150  5916"}}, "geometry": {"type": "Point", "coordinates": [-86.89215296252988, 30.180924542656783]}}, {"type": "Feature", "properties": {"norad_id": 66600, "name": "STARLINK-35980", "group": "last-30-days", "lat": 28.966378955825135, "lon": 168.37707998702135, "alt_km": 440.1175423135064, "timestamp": "2025-12-23T05:02:10.748062+00:00", "meta": {"OBJECT_NAME": "STARLINK-35980", "OBJECT_ID": "2025-270N", "EPOCH": "2025-12-22T19:30:19.951488", "MEAN_MOTION": 15.40706891, "ECCENTRICITY": 0.00016446, "INCLINATION": 43.0007, "RA_OF_ASC_NODE": 134.2241, "ARG_OF_PERICENTER": 273.1659, "MEAN_ANOMALY": 86.9009, "EPHEMERIS_TYPE": 0, "CLASSIFICATION_TYPE": "U", "NORAD_CAT_ID": 66600, "ELEMENT_SET_NO": 999, "REV_AT_EPOCH": 580, "BSTAR": 0.00015513304, "MEAN_MOTION_DOT": 6.183e-05, "MEAN_MOTION_DDOT": 0}, "tle": {"line1": "1 66600U 25270N   25356.81273092  .00006183  00000+0  15513-3 0  9992", "line2": "2 66600  43.0007 134.2241 0001644 273.1659  86.9009 15.40706891  5805"}}, "geometry": {"type": "Point", "coordinates": [168.37707998702135, 28.966378955825135]}}, {"type": "Feature", "properties": {"norad_id": 66601, "name": "STARLINK-35978", "group": "last-30-days", "lat": -33.581044228317026, "lon": 86.74050729602779, "alt_km": 446.71678194956075, "timestamp": "2025-12-23T05:02:10.748072+00:00", "meta": {"OBJECT_NAME": "STARLINK-35978", "OBJECT_ID": "2025-270P", "EPOCH": "2025-12-22T16:49:26.256576", "MEAN_MOTION": 15.40724614, "ECCENTRICITY": 3.635e-05, "INCLINATION": 43.0011, "RA_OF_ASC_NODE": 135.1079, "ARG_OF_PERICENTER": 356.863, "MEAN_ANOMALY": 3.2224, "EPHEMERIS_TYPE": 0, "CLASSIFICATION_TYPE": "U", "NORAD_CAT_ID": 66601, "ELEMENT_SET_NO": 999, "REV_AT_EPOCH": 572, "BSTAR": 0.00026821225, "MEAN_MOTION_DOT": 0.00010926, "MEAN_MOTION_DDOT": 0}, "tle": {"line1": "1 66601U 25270P   25356.70099834  .00010926  00000+0  26821-3 0  9995", "line2": "2 66601  43.0011 135.1079 0000363 356.8630   3.2224 15.40724614  5720"}}, "geometry": {"type": "Point", "coordinates": [86.74050729602779, -33.581044228317026]}}, {"type": "Feature", "properties": {"norad_id": 66602, "name": "STARLINK-36050", "group": "last-30-days", "lat": -32.31153076844796, "lon": -4.902196946660171, "alt_km": 444.938969331537, "timestamp": "2025-12-23T05:02:10.748083+00:00", "meta": {"OBJECT_NAME": "STARLINK-36050", "OBJECT_ID": "2025-270Q", "EPOCH": "2025-12-21T19:21:49.081248", "MEAN_MOTION": 15.40749091, "ECCENTRICITY": 0.00034479, "INCLINATION": 43.001, "RA_OF_ASC_NODE": 140.4448, "ARG_OF_PERICENTER": 267.6242, "MEAN_ANOMALY": 92.422, "EPHEMERIS_TYPE": 0, "CLASSIFICATION_TYPE": "U", "NORAD_CAT_ID": 66602, "ELEMENT_SET_NO": 999, "REV_AT_EPOCH": 564, "BSTAR": 0.00045713662, "MEAN_MOTION_DOT": 0.00018872, "MEAN_MOTION_DDOT": 0}, "tle": {"line1": "1 66602U 25270Q   25355.80681807  .00018872  00000+0  45714-3 0  9993", "line2": "2 66602  43.0010 140.4448 0003447 267.6242  92.4220 15.40749091  5646"}}, "geometry": {"type": "Point", "coordinates": [-4.902196946660171, -32.31153076844796]}}, {"type": "Feature", "properties": {"norad_id": 66603, "name": "STARLINK-36048", "group": "last-30-days", "lat": -11.424850688887256, "lon": 119.5597665883227, "alt_km": 444.66904816180613, "timestamp": "2025-12-23T05:02:10.748093+00:00", "meta": {"OBJECT_NAME": "STARLINK-36048", "OBJECT_ID": "2025-270R", "EPOCH": "2025-12-22T16:39:45.337536", "MEAN_MOTION": 15.40721586, "ECCENTRICITY": 0.00016747, "INCLINATION": 43.0018, "RA_OF_ASC_NODE": 135.0558, "ARG_OF_PERICENTER": 265.539, "MEAN_ANOMALY": 94.5275, "EPHEMERIS_TYPE": 0, "CLASSIFICATION_TYPE": "U", "NORAD_CAT_ID": 66603, "ELEMENT_SET_NO": 999, "REV_AT_EPOCH": 578, "BSTAR": 0.0010075194, "MEAN_MOTION_DOT": 0.00042046, "MEAN_MOTION_DDOT": 0}, "tle": {"line1": "1 66603U 25270R   25356.69427474  .00042046  00000+0  10075-2 0  9991", "line2": "2 66603  43.0018 135.0558 0001674 265.5390  94.5275 15.40721586  5785"}}, "geometry": {"type": "Point", "coordinates": [119.5597665883227, -11.424850688887256]}}, {"type": "Feature", "properties": {"norad_id": 66604, "name": "STARLINK-35977", "group": "last-30-days", "lat": 5.405437848173084, "lon": 137.85219029467174, "alt_km": 443.2720235558663, "timestamp": "2025-12-23T05:02:10.748103+00:00", "meta": {"OBJECT_NAME": "STARLINK-35977", "OBJECT_ID": "2025-270S", "EPOCH": "2025-12-22T16:33:17.995968", "MEAN_MOTION": 15.40706066, "ECCENTRICITY": 0.00014664, "INCLINATION": 43.0009, "RA_OF_ASC_NODE": 135.0219, "ARG_OF_PERICENTER": 261.4473, "MEAN_ANOMALY": 98.6217, "EPHEMERIS_TYPE": 0, "CLASSIFICATION_TYPE": "U", "NORAD_CAT_ID": 66604, "ELEMENT_SET_NO": 999, "REV_AT_EPOCH": 588, "BSTAR": 0.00016024515, "MEAN_MOTION_DOT": 6.397e-05, "MEAN_MOTION_DDOT": 0}, "tle": {"line1": "1 66604U 25270S   25356.68979162  .00006397  00000+0  16025-3 0  9998", "line2": "2 66604  43.0009 135.0219 0001466 261.4473  98.6217 15.40706066  5884"}}, "geometry": {"type": "Point", "coordinates": [137.85219029467174, 5.405437848173084]}}]}